[{"OBJECT_NAME":"FENGYUN 3H","OBJECT_ID":"2025-219A","EPOCH":"2026-03-09T21:29:42.222912","MEAN_MOTION":14.19932737,"ECCENTRICITY":0.00012969,"INCLINATION":98.6685,"RA_OF_ASC_NODE":11.64,"ARG_OF_PERICENTER":61.8301,"MEAN_ANOMALY":298.3007,"EPHEMERIS_TYPE":0,"CLASSIFICATION_TYPE":"U","NORAD_CAT_ID":65815,"ELEMENT_SET_NO":999,"REV_AT_EPOCH":2329,"BSTAR":7.8784575e-5,"MEAN_MOTION_DOT":1.24e-6,"MEAN_MOTION_DDOT":0},{"OBJECT_NAME":"FENGYUN 1C DEB","OBJECT_ID":"1999-025JE","EPOCH":"2026-03-08T23:30:32.217984","MEAN_MOTION":14.16891246,"ECCENTRICITY":0.00376122,"INCLINATION":98.6336,"RA_OF_ASC_NODE":81.1288,"ARG_OF_PERICENTER":180.3439,"MEAN_ANOMALY":243.1109,"EPHEMERIS_TYPE":0,"CLASSIFICATION_TYPE":"U","NORAD_CAT_ID":29932,"ELEMENT_SET_NO":999,"REV_AT_EPOCH":98805,"BSTAR":0.00034208444,"MEAN_MOTION_DOT":6.48e-6,"MEAN_MOTION_DDOT":0}]
